TYVAK-0130              
1 48606U 21041BF  26068.48452211  .00008857  00000+0  35198-3 0  9997
2 48606  52.9967 128.6030 0008953 215.1647 144.8760 15.26049141265157
STARLINK-31401          
1 59417U 24064V   26068.28431770 -.00000960  00000+0 -25367-4 0  9999
2 59417  43.0046  51.5445 0001413 251.7508 108.3190 15.27579016108998
